{
    "CCSDS_OMM_VERS": "3.0",
    "COMMENT": "GENERATED VIA SPACE-TRACK.ORG API",
    "CREATION_DATE": "2025-11-23T23:16:19",
    "ORIGINATOR": "18 SPCS",
    "OBJECT_NAME": "BEIDOU 3 M26",
    "OBJECT_ID": "2023-207B",
    "CENTER_NAME": "EARTH",
    "REF_FRAME": "TEME",
    "TIME_SYSTEM": "UTC",
    "MEAN_ELEMENT_THEORY": "SGP4",
    "EPOCH": "2025-11-23T10:36:56.733120",
    "MEAN_MOTION": "1.86231313",
    "ECCENTRICITY": "0.00031590",
    "INCLINATION": "55.5701",
    "RA_OF_ASC_NODE": "69.2412",
    "ARG_OF_PERICENTER": "245.9130",
    "MEAN_ANOMALY": "114.0567",
    "EPHEMERIS_TYPE": "0",
    "CLASSIFICATION_TYPE": "U",
    "NORAD_CAT_ID": "58655",
    "ELEMENT_SET_NO": "999",
    "REV_AT_EPOCH": "1299",
    "BSTAR": "0.00000000000000",
    "MEAN_MOTION_DOT": "-0.00000029",
    "MEAN_MOTION_DDOT": "0.0000000000000",
    "SEMIMAJOR_AXIS": "27906.157",
    "PERIOD": "773.232",
    "APOAPSIS": "21536.838",
    "PERIAPSIS": "21519.207",
    "OBJECT_TYPE": "PAYLOAD",
    "RCS_SIZE": "LARGE",
    "COUNTRY_CODE": "PRC",
    "LAUNCH_DATE": "2023-12-26",
    "SITE": "XSC",
    "DECAY_DATE": null,
    "FILE": "4896648",
    "GP_ID": "303359868",
    "TLE_LINE0": "0 BEIDOU 3 M26",
    "TLE_LINE1": "1 58655U 23207B   25327.44232330 -.00000029  00000-0  00000+0 0  9994",
    "TLE_LINE2": "2 58655  55.5701  69.2412 0003159 245.9130 114.0567  1.86231313 12993"
}